KUIPER-00136            
1 65962U 25228R   25311.75775005  .00023584  00000+0  69298-3 0  9993
2 65962  51.8779 189.0949 0005646 218.8018 141.2563 15.34990884  5048
KUIPER-00137            
1 65963U 25228S   25311.82874109  .00019546  00000+0  58273-3 0  9991
2 65963  51.8787 188.8205 0004964 234.4364 125.6159 15.34656939  5058
KUIPER-00138            
1 65964U 25228T   25311.83178061  .00042785  00000+0  12665-2 0  9992
2 65964  51.8774 188.8350 0005970 246.7198 113.3159 15.34448698  5050
KUIPER-00140            
1 65965U 25228U   25311.83243149  .00037787  00000+0  11219-2 0  9993
2 65965  51.8784 188.8423 0005093 246.6041 113.4409 15.34416421  5053
KUIPER-00141            
1 65966U 25228V   25311.76050892  .00044798  00000+0  13053-2 0  9995
2 65966  51.8772 189.1076 0005492 226.1198 133.9335 15.34928010  5044
KUIPER-00146            
1 65967U 25228W   25311.76105042  .00039336  00000+0  11495-2 0  9994
2 65967  51.8781 189.1186 0005531 227.4343 132.6177 15.34896848  5040
KUIPER-00149            
1 65968U 25228X   25311.75810757  .00027787  00000+0  81200-3 0  9999
2 65968  51.8772 189.0930 0005480 223.2204 136.8352 15.35071490  5040
KUIPER-00154            
1 65969U 25228Y   25311.75700125  .00031173  00000+0  90705-3 0  9991
2 65969  51.8773 189.0857 0005737 221.2532 138.8020 15.35144286  5045
KUIPER-00157            
1 65970U 25228Z   25311.82981885  .00020605  00000+0  61295-3 0  9995
2 65970  51.8784 188.8274 0005533 239.1440 120.9002 15.34686994  5058
STRIX-5                 
1 65971U 25229A   25311.65776288  .00008359  00000+0  63459-3 0  9993
2 65971  41.9283  73.6308 0038595  41.6431 318.7322 15.01787587  3630
ELECTRON R/B            
1 65972U 25229B   25311.79077705  .00008429  00000+0  63967-3 0  9999
2 65972  41.9282  72.8963 0038653  42.5432 317.8378 15.01790221  3634
ELECTRON KICK STAGE R/B 
1 65973U 25229C   25311.71062178  .00010806  00000+0  79562-3 0  9990
2 65973  41.9843  73.2924 0039762  42.0588 318.3280 15.02699956  3619
