CCSDS_OMM_VERS = 2.0
CREATION_DATE  = 
ORIGINATOR     = 

OBJECT_NAME    = KUIPER-00136
OBJECT_ID      = 2025-228R
CENTER_NAME    = EARTH
REF_FRAME      = TEME
TIME_SYSTEM    = UTC
MEAN_ELEMENT_THEORY = SGP/SGP4

EPOCH          = 2025-11-07T18:11:09.604320
MEAN_MOTION    = 15.34990884
ECCENTRICITY   = .0005646
INCLINATION    = 51.8779
RA_OF_ASC_NODE = 189.0949
ARG_OF_PERICENTER = 218.8018
MEAN_ANOMALY   = 141.2563

EPHEMERIS_TYPE = 0
CLASSIFICATION_TYPE = U
NORAD_CAT_ID   = 65962
ELEMENT_SET_NO = 999
REV_AT_EPOCH   = 504
BSTAR          = .69298E-3
MEAN_MOTION_DOT = .23584E-3
MEAN_MOTION_DDOT = 0

CCSDS_OMM_VERS = 2.0
CREATION_DATE  = 
ORIGINATOR     = 

OBJECT_NAME    = KUIPER-00137
OBJECT_ID      = 2025-228S
CENTER_NAME    = EARTH
REF_FRAME      = TEME
TIME_SYSTEM    = UTC
MEAN_ELEMENT_THEORY = SGP/SGP4

EPOCH          = 2025-11-07T19:53:23.230176
MEAN_MOTION    = 15.34656939
ECCENTRICITY   = .0004964
INCLINATION    = 51.8787
RA_OF_ASC_NODE = 188.8205
ARG_OF_PERICENTER = 234.4364
MEAN_ANOMALY   = 125.6159

EPHEMERIS_TYPE = 0
CLASSIFICATION_TYPE = U
NORAD_CAT_ID   = 65963
ELEMENT_SET_NO = 999
REV_AT_EPOCH   = 505
BSTAR          = .58273E-3
MEAN_MOTION_DOT = .19546E-3
MEAN_MOTION_DDOT = 0

CCSDS_OMM_VERS = 2.0
CREATION_DATE  = 
ORIGINATOR     = 

OBJECT_NAME    = KUIPER-00138
OBJECT_ID      = 2025-228T
CENTER_NAME    = EARTH
REF_FRAME      = TEME
TIME_SYSTEM    = UTC
MEAN_ELEMENT_THEORY = SGP/SGP4

EPOCH          = 2025-11-07T19:57:45.844704
MEAN_MOTION    = 15.34448698
ECCENTRICITY   = .000597
INCLINATION    = 51.8774
RA_OF_ASC_NODE = 188.8350
ARG_OF_PERICENTER = 246.7198
MEAN_ANOMALY   = 113.3159

EPHEMERIS_TYPE = 0
CLASSIFICATION_TYPE = U
NORAD_CAT_ID   = 65964
ELEMENT_SET_NO = 999
REV_AT_EPOCH   = 505
BSTAR          = .12665E-2
MEAN_MOTION_DOT = .42785E-3
MEAN_MOTION_DDOT = 0

CCSDS_OMM_VERS = 2.0
CREATION_DATE  = 
ORIGINATOR     = 

OBJECT_NAME    = KUIPER-00140
OBJECT_ID      = 2025-228U
CENTER_NAME    = EARTH
REF_FRAME      = TEME
TIME_SYSTEM    = UTC
MEAN_ELEMENT_THEORY = SGP/SGP4

EPOCH          = 2025-11-07T19:58:42.080736
MEAN_MOTION    = 15.34416421
ECCENTRICITY   = .0005093
INCLINATION    = 51.8784
RA_OF_ASC_NODE = 188.8423
ARG_OF_PERICENTER = 246.6041
MEAN_ANOMALY   = 113.4409

EPHEMERIS_TYPE = 0
CLASSIFICATION_TYPE = U
NORAD_CAT_ID   = 65965
ELEMENT_SET_NO = 999
REV_AT_EPOCH   = 505
BSTAR          = .11219E-2
MEAN_MOTION_DOT = .37787E-3
MEAN_MOTION_DDOT = 0

CCSDS_OMM_VERS = 2.0
CREATION_DATE  = 
ORIGINATOR     = 

OBJECT_NAME    = KUIPER-00141
OBJECT_ID      = 2025-228V
CENTER_NAME    = EARTH
REF_FRAME      = TEME
TIME_SYSTEM    = UTC
MEAN_ELEMENT_THEORY = SGP/SGP4

EPOCH          = 2025-11-07T18:15:07.970688
MEAN_MOTION    = 15.34928010
ECCENTRICITY   = .0005492
INCLINATION    = 51.8772
RA_OF_ASC_NODE = 189.1076
ARG_OF_PERICENTER = 226.1198
MEAN_ANOMALY   = 133.9335

EPHEMERIS_TYPE = 0
CLASSIFICATION_TYPE = U
NORAD_CAT_ID   = 65966
ELEMENT_SET_NO = 999
REV_AT_EPOCH   = 504
BSTAR          = .13053E-2
MEAN_MOTION_DOT = .44798E-3
MEAN_MOTION_DDOT = 0

CCSDS_OMM_VERS = 2.0
CREATION_DATE  = 
ORIGINATOR     = 

OBJECT_NAME    = KUIPER-00146
OBJECT_ID      = 2025-228W
CENTER_NAME    = EARTH
REF_FRAME      = TEME
TIME_SYSTEM    = UTC
MEAN_ELEMENT_THEORY = SGP/SGP4

EPOCH          = 2025-11-07T18:15:54.756288
MEAN_MOTION    = 15.34896848
ECCENTRICITY   = .0005531
INCLINATION    = 51.8781
RA_OF_ASC_NODE = 189.1186
ARG_OF_PERICENTER = 227.4343
MEAN_ANOMALY   = 132.6177

EPHEMERIS_TYPE = 0
CLASSIFICATION_TYPE = U
NORAD_CAT_ID   = 65967
ELEMENT_SET_NO = 999
REV_AT_EPOCH   = 504
BSTAR          = .11495E-2
MEAN_MOTION_DOT = .39336E-3
MEAN_MOTION_DDOT = 0

CCSDS_OMM_VERS = 2.0
CREATION_DATE  = 
ORIGINATOR     = 

OBJECT_NAME    = KUIPER-00149
OBJECT_ID      = 2025-228X
CENTER_NAME    = EARTH
REF_FRAME      = TEME
TIME_SYSTEM    = UTC
MEAN_ELEMENT_THEORY = SGP/SGP4

EPOCH          = 2025-11-07T18:11:40.494048
MEAN_MOTION    = 15.35071490
ECCENTRICITY   = .000548
INCLINATION    = 51.8772
RA_OF_ASC_NODE = 189.0930
ARG_OF_PERICENTER = 223.2204
MEAN_ANOMALY   = 136.8352

EPHEMERIS_TYPE = 0
CLASSIFICATION_TYPE = U
NORAD_CAT_ID   = 65968
ELEMENT_SET_NO = 999
REV_AT_EPOCH   = 504
BSTAR          = .812E-3
MEAN_MOTION_DOT = .27787E-3
MEAN_MOTION_DDOT = 0

CCSDS_OMM_VERS = 2.0
CREATION_DATE  = 
ORIGINATOR     = 

OBJECT_NAME    = KUIPER-00154
OBJECT_ID      = 2025-228Y
CENTER_NAME    = EARTH
REF_FRAME      = TEME
TIME_SYSTEM    = UTC
MEAN_ELEMENT_THEORY = SGP/SGP4

EPOCH          = 2025-11-07T18:10:04.908000
MEAN_MOTION    = 15.35144286
ECCENTRICITY   = .0005737
INCLINATION    = 51.8773
RA_OF_ASC_NODE = 189.0857
ARG_OF_PERICENTER = 221.2532
MEAN_ANOMALY   = 138.8020

EPHEMERIS_TYPE = 0
CLASSIFICATION_TYPE = U
NORAD_CAT_ID   = 65969
ELEMENT_SET_NO = 999
REV_AT_EPOCH   = 504
BSTAR          = .90705E-3
MEAN_MOTION_DOT = .31173E-3
MEAN_MOTION_DDOT = 0

CCSDS_OMM_VERS = 2.0
CREATION_DATE  = 
ORIGINATOR     = 

OBJECT_NAME    = KUIPER-00157
OBJECT_ID      = 2025-228Z
CENTER_NAME    = EARTH
REF_FRAME      = TEME
TIME_SYSTEM    = UTC
MEAN_ELEMENT_THEORY = SGP/SGP4

EPOCH          = 2025-11-07T19:54:56.348640
MEAN_MOTION    = 15.34686994
ECCENTRICITY   = .0005533
INCLINATION    = 51.8784
RA_OF_ASC_NODE = 188.8274
ARG_OF_PERICENTER = 239.1440
MEAN_ANOMALY   = 120.9002

EPHEMERIS_TYPE = 0
CLASSIFICATION_TYPE = U
NORAD_CAT_ID   = 65970
ELEMENT_SET_NO = 999
REV_AT_EPOCH   = 505
BSTAR          = .61295E-3
MEAN_MOTION_DOT = .20605E-3
MEAN_MOTION_DDOT = 0

CCSDS_OMM_VERS = 2.0
CREATION_DATE  = 
ORIGINATOR     = 

OBJECT_NAME    = STRIX-5
OBJECT_ID      = 2025-229A
CENTER_NAME    = EARTH
REF_FRAME      = TEME
TIME_SYSTEM    = UTC
MEAN_ELEMENT_THEORY = SGP/SGP4

EPOCH          = 2025-11-07T15:47:10.712832
MEAN_MOTION    = 15.01787587
ECCENTRICITY   = .0038595
INCLINATION    = 41.9283
RA_OF_ASC_NODE = 73.6308
ARG_OF_PERICENTER = 41.6431
MEAN_ANOMALY   = 318.7322

EPHEMERIS_TYPE = 0
CLASSIFICATION_TYPE = U
NORAD_CAT_ID   = 65971
ELEMENT_SET_NO = 999
REV_AT_EPOCH   = 363
BSTAR          = .63459E-3
MEAN_MOTION_DOT = .8359E-4
MEAN_MOTION_DDOT = 0

CCSDS_OMM_VERS = 2.0
CREATION_DATE  = 
ORIGINATOR     = 

OBJECT_NAME    = ELECTRON R/B
OBJECT_ID      = 2025-229B
CENTER_NAME    = EARTH
REF_FRAME      = TEME
TIME_SYSTEM    = UTC
MEAN_ELEMENT_THEORY = SGP/SGP4

EPOCH          = 2025-11-07T18:58:43.137120
MEAN_MOTION    = 15.01790221
ECCENTRICITY   = .0038653
INCLINATION    = 41.9282
RA_OF_ASC_NODE = 72.8963
ARG_OF_PERICENTER = 42.5432
MEAN_ANOMALY   = 317.8378

EPHEMERIS_TYPE = 0
CLASSIFICATION_TYPE = U
NORAD_CAT_ID   = 65972
ELEMENT_SET_NO = 999
REV_AT_EPOCH   = 363
BSTAR          = .63967E-3
MEAN_MOTION_DOT = .8429E-4
MEAN_MOTION_DDOT = 0

CCSDS_OMM_VERS = 2.0
CREATION_DATE  = 
ORIGINATOR     = 

OBJECT_NAME    = ELECTRON KICK STAGE R/B
OBJECT_ID      = 2025-229C
CENTER_NAME    = EARTH
REF_FRAME      = TEME
TIME_SYSTEM    = UTC
MEAN_ELEMENT_THEORY = SGP/SGP4

EPOCH          = 2025-11-07T17:03:17.721792
MEAN_MOTION    = 15.02699956
ECCENTRICITY   = .0039762
INCLINATION    = 41.9843
RA_OF_ASC_NODE = 73.2924
ARG_OF_PERICENTER = 42.0588
MEAN_ANOMALY   = 318.3280

EPHEMERIS_TYPE = 0
CLASSIFICATION_TYPE = U
NORAD_CAT_ID   = 65973
ELEMENT_SET_NO = 999
REV_AT_EPOCH   = 361
BSTAR          = .79562E-3
MEAN_MOTION_DOT = .10806E-3
MEAN_MOTION_DDOT = 0

